IRIDIUM 171             
1 43929U 19002H   25012.54863941  .00000144  00000+0  44320-4 0  9994
2 43929  86.3979 211.3663 0002373  95.1267 265.0200 14.34216895314330
IRIDIUM 170             
1 43930U 19002J   25012.60049270  .00000545  00000+0  82494-4 0  9993
2 43930  86.6098 211.1274 0001985  87.1220 273.0224 14.72235739322661
IRIDIUM 167             
1 43931U 19002K   25012.54230291  .00000148  00000+0  45632-4 0  9994
2 43931  86.3970 211.1384 0002091 101.6637 258.4793 14.34218341314334
IRIDIUM 181             
1 56726U 23068S   25012.44309383  .00000611  00000+0  17446-3 0  9991
2 56726  86.6862 274.2559 0002629  86.6984 273.4518 14.43586229 87322
IRIDIUM 177             
1 56727U 23068T   25012.58735019  .00000084  00000+0  75786-5 0  9993
2 56727  86.1967 215.9241 0001944  79.8340 280.3100 14.80198881 89356
IRIDIUM 174             
1 56728U 23068U   25012.58197957  .00000748  00000+0  94893-4 0  9993
2 56728  86.1975 216.0474 0002482  85.4031 274.7473 14.80223378 89354
IRIDIUM 178             
1 56729U 23068V   25012.57656006  .00002191  00000+0  28483-3 0  9993
2 56729  86.5763 243.4178 0003085  82.6148 277.5424 14.80234467 89355
IRIDIUM 179             
1 56730U 23068W   25012.57116680  .00001885  00000+0  24460-3 0  9994
2 56730  86.6772 250.1907 0002278  88.6924 271.4559 14.80241824 89351
